NUSAT-43 (R DIENG-KUNTZ)
1 56968U 23084AN  26067.91360678  .00168767  00000+0  11289-2 0  9999
2 56968  97.4369 210.0765 0005970 240.2474 119.8197 15.74780826153440
STARLINK-11680 [DTC]    
1 63554U 25075G   26068.28828389  .00299451  00000+0  22287-2 0  9994
2 63554  42.9989 156.3852 0001964 257.1650 102.8999 15.71110053 53181
