[{"OBJECT_NAME":"NUSAT-43 (R DIENG-KUNTZ)","OBJECT_ID":"2023-084AN","EPOCH":"2026-03-08T21:55:35.625792","MEAN_MOTION":15.74780826,"ECCENTRICITY":0.00059701,"INCLINATION":97.4369,"RA_OF_ASC_NODE":210.0765,"ARG_OF_PERICENTER":240.2474,"MEAN_ANOMALY":119.8197,"EPHEMERIS_TYPE":0,"CLASSIFICATION_TYPE":"U","NORAD_CAT_ID":56968,"ELEMENT_SET_NO":999,"REV_AT_EPOCH":15344,"BSTAR":0.0011289476,"MEAN_MOTION_DOT":0.00168767,"MEAN_MOTION_DDOT":0},{"OBJECT_NAME":"STARLINK-11680 [DTC]","OBJECT_ID":"2025-075G","EPOCH":"2026-03-09T06:55:07.728096","MEAN_MOTION":15.71110053,"ECCENTRICITY":0.00019646,"INCLINATION":42.9989,"RA_OF_ASC_NODE":156.3852,"ARG_OF_PERICENTER":257.165,"MEAN_ANOMALY":102.8999,"EPHEMERIS_TYPE":0,"CLASSIFICATION_TYPE":"U","NORAD_CAT_ID":63554,"ELEMENT_SET_NO":999,"REV_AT_EPOCH":5318,"BSTAR":0.0022287241,"MEAN_MOTION_DOT":0.00299451,"MEAN_MOTION_DDOT":0}]
